STARLINK-1676
1 26556C 20070AA  21325.18090184 -.00009243  00000-0 -61939-3 0  3253
2 26556  53.0558  22.4265 0001289  62.8469 315.0513 15.06403663    13
